{"type": "FeatureCollection", "features": [{"type": "Feature", "properties": {"norad_id": 66313, "name": "YAOGAN-46", "group": "last-30-days", "lat": -18.280974045713656, "lon": -16.883364239374906, "alt_km": 7439.682576321623, "timestamp": "2025-12-03T15:48:01.917028+00:00", "meta": {"OBJECT_NAME": "YAOGAN-46", "OBJECT_ID": "2025-250A", "EPOCH": "2025-11-23T01:44:02.775840", "MEAN_MOTION": 5.35115916, "ECCENTRICITY": 0.00492374, "INCLINATION": 20.0335, "RA_OF_ASC_NODE": 104.8243, "ARG_OF_PERICENTER": 135.6954, "MEAN_ANOMALY": 224.7061, "EPHEMERIS_TYPE": 0, "CLASSIFICATION_TYPE": "U", "NORAD_CAT_ID": 66313, "ELEMENT_SET_NO": 999, "REV_AT_EPOCH": 114, "BSTAR": 0, "MEAN_MOTION_DOT": -7e-08, "MEAN_MOTION_DDOT": 0}, "tle": {"line1": "1 66313U 25250A   25327.07225435 -.00000007  00000+0  00000+0 0  9996", "line2": "2 66313  20.0335 104.8243 0049237 135.6954 224.7061  5.35115916  1148"}}, "geometry": {"type": "Point", "coordinates": [-16.883364239374906, -18.280974045713656]}}, {"type": "Feature", "properties": {"norad_id": 66315, "name": "SENTINEL-1D", "group": "last-30-days", "lat": -75.58429789832341, "lon": 16.896397675237562, "alt_km": 701.957267642817, "timestamp": "2025-12-03T15:48:01.917089+00:00", "meta": {"OBJECT_NAME": "SENTINEL-1D", "OBJECT_ID": "2025-251A", "EPOCH": "2025-12-03T01:21:13.582080", "MEAN_MOTION": 14.59910506, "ECCENTRICITY": 0.00026161, "INCLINATION": 98.1924, "RA_OF_ASC_NODE": 342.2151, "ARG_OF_PERICENTER": 154.2642, "MEAN_ANOMALY": 205.8688, "EPHEMERIS_TYPE": 0, "CLASSIFICATION_TYPE": "U", "NORAD_CAT_ID": 66315, "ELEMENT_SET_NO": 999, "REV_AT_EPOCH": 412, "BSTAR": 7.3946069e-05, "MEAN_MOTION_DOT": 3.08e-06, "MEAN_MOTION_DDOT": 0}, "tle": {"line1": "1 66315U 25251A   25337.05640720  .00000308  00000+0  73946-4 0  9993", "line2": "2 66315  98.1924 342.2151 0002616 154.2642 205.8688 14.59910506  4127"}}, "geometry": {"type": "Point", "coordinates": [16.896397675237562, -75.58429789832341]}}, {"type": "Feature", "properties": {"norad_id": 66316, "name": "QPS-SAR-14 (YACHIHOKO-I)", "group": "last-30-days", "lat": -26.60301751144813, "lon": 91.35639906953341, "alt_km": 579.8986129811501, "timestamp": "2025-12-03T15:48:01.917107+00:00", "meta": {"OBJECT_NAME": "QPS-SAR-14 (YACHIHOKO-I)", "OBJECT_ID": "2025-252A", "EPOCH": "2025-12-02T22:22:47.369280", "MEAN_MOTION": 14.97533583, "ECCENTRICITY": 0.00068653, "INCLINATION": 42.003, "RA_OF_ASC_NODE": 129.1524, "ARG_OF_PERICENTER": 82.8297, "MEAN_ANOMALY": 277.3308, "EPHEMERIS_TYPE": 0, "CLASSIFICATION_TYPE": "U", "NORAD_CAT_ID": 66316, "ELEMENT_SET_NO": 999, "REV_AT_EPOCH": 406, "BSTAR": 0.00069308955, "MEAN_MOTION_DOT": 8.05e-05, "MEAN_MOTION_DDOT": 0}, "tle": {"line1": "1 66316U 25252A   25336.93249270  .00008050  00000+0  69309-3 0  9995", "line2": "2 66316  42.0030 129.1524 0006865  82.8297 277.3308 14.97533583  4066"}}, "geometry": {"type": "Point", "coordinates": [91.35639906953341, -26.60301751144813]}}, {"type": "Feature", "properties": {"norad_id": 66317, "name": "ELECTRON R/B", "group": "last-30-days", "lat": -20.99560804926102, "lon": -48.83987982461792, "alt_km": 287.8273685412323, "timestamp": "2025-12-03T15:48:01.917122+00:00", "meta": {"OBJECT_NAME": "ELECTRON R/B", "OBJECT_ID": "2025-252B", "EPOCH": "2025-12-03T10:27:46.350432", "MEAN_MOTION": 16.09323676, "ECCENTRICITY": 0.008417, "INCLINATION": 41.9898, "RA_OF_ASC_NODE": 107.3458, "ARG_OF_PERICENTER": 70.8719, "MEAN_ANOMALY": 290.1236, "EPHEMERIS_TYPE": 0, "CLASSIFICATION_TYPE": "U", "NORAD_CAT_ID": 66317, "ELEMENT_SET_NO": 999, "REV_AT_EPOCH": 435, "BSTAR": 0.0017359, "MEAN_MOTION_DOT": 0.02869303, "MEAN_MOTION_DDOT": 8.1529e-06}, "tle": {"line1": "1 66317U 25252B   25337.43595313  .02869303  81529-5  17359-2 0  9990", "line2": "2 66317  41.9898 107.3458 0084170  70.8719 290.1236 16.09323676  4352"}}, "geometry": {"type": "Point", "coordinates": [-48.83987982461792, -20.99560804926102]}}, {"type": "Feature", "properties": {"norad_id": 66319, "name": "STARLINK-35442", "group": "last-30-days", "lat": -7.230157833518993, "lon": -133.96485380959768, "alt_km": 444.5412377635557, "timestamp": "2025-12-03T15:48:01.917136+00:00", "meta": {"OBJECT_NAME": "STARLINK-35442", "OBJECT_ID": "2025-253A", "EPOCH": "2025-12-03T08:00:01.999872", "MEAN_MOTION": 15.40670608, "ECCENTRICITY": 0.00011045, "INCLINATION": 43.0011, "RA_OF_ASC_NODE": 40.084, "ARG_OF_PERICENTER": 263.869, "MEAN_ANOMALY": 281.9622, "EPHEMERIS_TYPE": 0, "CLASSIFICATION_TYPE": "U", "NORAD_CAT_ID": 66319, "ELEMENT_SET_NO": 999, "REV_AT_EPOCH": 551, "BSTAR": 0.0007914928, "MEAN_MOTION_DOT": 0.00032869, "MEAN_MOTION_DDOT": 0}, "tle": {"line1": "1 66319U 25253A   25337.33335648  .00032869  00000+0  79149-3 0  9997", "line2": "2 66319  43.0011  40.0840 0001104 263.8690 281.9622 15.40670608  5510"}}, "geometry": {"type": "Point", "coordinates": [-133.96485380959768, -7.230157833518993]}}, {"type": "Feature", "properties": {"norad_id": 66320, "name": "STARLINK-34616", "group": "last-30-days", "lat": -14.374505930250324, "lon": 21.88090767707382, "alt_km": 415.0883630153221, "timestamp": "2025-12-03T15:48:01.917151+00:00", "meta": {"OBJECT_NAME": "STARLINK-34616", "OBJECT_ID": "2025-253B", "EPOCH": "2025-12-02T12:04:03.392256", "MEAN_MOTION": 15.5059712, "ECCENTRICITY": 0.00016197, "INCLINATION": 43.0005, "RA_OF_ASC_NODE": 44.6062, "ARG_OF_PERICENTER": 274.0056, "MEAN_ANOMALY": 86.0619, "EPHEMERIS_TYPE": 0, "CLASSIFICATION_TYPE": "U", "NORAD_CAT_ID": 66320, "ELEMENT_SET_NO": 999, "REV_AT_EPOCH": 542, "BSTAR": 0.0018491849, "MEAN_MOTION_DOT": 0.00109746, "MEAN_MOTION_DDOT": 0}, "tle": {"line1": "1 66320U 25253B   25336.50281704  .00109746  00000+0  18492-2 0  9992", "line2": "2 66320  43.0005  44.6062 0001619 274.0056  86.0619 15.50597120  5420"}}, "geometry": {"type": "Point", "coordinates": [21.88090767707382, -14.374505930250324]}}, {"type": "Feature", "properties": {"norad_id": 66321, "name": "STARLINK-34615", "group": "last-30-days", "lat": -36.98576161711997, "lon": -16.857386034495075, "alt_km": 402.981834870232, "timestamp": "2025-12-03T15:48:01.917165+00:00", "meta": {"OBJECT_NAME": "STARLINK-34615", "OBJECT_ID": "2025-253C", "EPOCH": "2025-12-03T08:00:01.999872", "MEAN_MOTION": 15.57178083, "ECCENTRICITY": 0.00012369, "INCLINATION": 43.0004, "RA_OF_ASC_NODE": 38.9847, "ARG_OF_PERICENTER": 263.2956, "MEAN_ANOMALY": 11.7212, "EPHEMERIS_TYPE": 0, "CLASSIFICATION_TYPE": "U", "NORAD_CAT_ID": 66321, "ELEMENT_SET_NO": 999, "REV_AT_EPOCH": 546, "BSTAR": -0.036417219, "MEAN_MOTION_DOT": -0.02379391, "MEAN_MOTION_DDOT": 0}, "tle": {"line1": "1 66321U 25253C   25337.33335648 -.02379391  00000+0 -36417-1 0  9997", "line2": "2 66321  43.0004  38.9847 0001236 263.2956  11.7212 15.57178083  5469"}}, "geometry": {"type": "Point", "coordinates": [-16.857386034495075, -36.98576161711997]}}, {"type": "Feature", "properties": {"norad_id": 66322, "name": "STARLINK-35292", "group": "last-30-days", "lat": -30.489526407009127, "lon": -102.69649986658094, "alt_km": 446.6230802886348, "timestamp": "2025-12-03T15:48:01.917177+00:00", "meta": {"OBJECT_NAME": "STARLINK-35292", "OBJECT_ID": "2025-253D", "EPOCH": "2025-12-03T08:00:01.999872", "MEAN_MOTION": 15.40741255, "ECCENTRICITY": 0.0001089, "INCLINATION": 43.0008, "RA_OF_ASC_NODE": 39.9907, "ARG_OF_PERICENTER": 281.0636, "MEAN_ANOMALY": 302.2538, "EPHEMERIS_TYPE": 0, "CLASSIFICATION_TYPE": "U", "NORAD_CAT_ID": 66322, "ELEMENT_SET_NO": 999, "REV_AT_EPOCH": 541, "BSTAR": -0.0049108334, "MEAN_MOTION_DOT": -0.00200416, "MEAN_MOTION_DDOT": 0}, "tle": {"line1": "1 66322U 25253D   25337.33335648 -.00200416  00000+0 -49108-2 0  9999", "line2": "2 66322  43.0008  39.9907 0001089 281.0636 302.2538 15.40741255  5414"}}, "geometry": {"type": "Point", "coordinates": [-102.69649986658094, -30.489526407009127]}}, {"type": "Feature", "properties": {"norad_id": 66323, "name": "STARLINK-35309", "group": "last-30-days", "lat": -4.233864936641335, "lon": 33.2538942663178, "alt_km": 414.13927821765265, "timestamp": "2025-12-03T15:48:01.917191+00:00", "meta": {"OBJECT_NAME": "STARLINK-35309", "OBJECT_ID": "2025-253E", "EPOCH": "2025-12-02T21:16:39.662688", "MEAN_MOTION": 15.50623104, "ECCENTRICITY": 6.316e-05, "INCLINATION": 42.9971, "RA_OF_ASC_NODE": 42.3277, "ARG_OF_PERICENTER": 6.4347, "MEAN_ANOMALY": 353.6521, "EPHEMERIS_TYPE": 0, "CLASSIFICATION_TYPE": "U", "NORAD_CAT_ID": 66323, "ELEMENT_SET_NO": 999, "REV_AT_EPOCH": 540, "BSTAR": 0.0025750931, "MEAN_MOTION_DOT": 0.00153977, "MEAN_MOTION_DDOT": 0}, "tle": {"line1": "1 66323U 25253E   25336.88657017  .00153977  00000+0  25751-2 0  9991", "line2": "2 66323  42.9971  42.3277 0000631   6.4347 353.6521 15.50623104  5404"}}, "geometry": {"type": "Point", "coordinates": [33.2538942663178, -4.233864936641335]}}, {"type": "Feature", "properties": {"norad_id": 66324, "name": "STARLINK-35506", "group": "last-30-days", "lat": -9.320944782684359, "lon": 27.683391048413903, "alt_km": 414.3457352022833, "timestamp": "2025-12-03T15:48:01.917203+00:00", "meta": {"OBJECT_NAME": "STARLINK-35506", "OBJECT_ID": "2025-253F", "EPOCH": "2025-12-02T21:18:38.393568", "MEAN_MOTION": 15.50722844, "ECCENTRICITY": 0.00011072, "INCLINATION": 42.9991, "RA_OF_ASC_NODE": 42.3374, "ARG_OF_PERICENTER": 339.0363, "MEAN_ANOMALY": 21.0451, "EPHEMERIS_TYPE": 0, "CLASSIFICATION_TYPE": "U", "NORAD_CAT_ID": 66324, "ELEMENT_SET_NO": 999, "REV_AT_EPOCH": 540, "BSTAR": 0.0016172001, "MEAN_MOTION_DOT": 0.00096197, "MEAN_MOTION_DDOT": 0}, "tle": {"line1": "1 66324U 25253F   25336.88794437  .00096197  00000+0  16172-2 0  9997", "line2": "2 66324  42.9991  42.3374 0001107 339.0363  21.0451 15.50722844  5406"}}, "geometry": {"type": "Point", "coordinates": [27.683391048413903, -9.320944782684359]}}]}